[{"OBJECT_NAME":"STARLINK-32296","OBJECT_ID":"2024-183R","EPOCH":"2026-03-09T11:22:25.830048","MEAN_MOTION":15.30190017,"ECCENTRICITY":0.00010748,"INCLINATION":53.1599,"RA_OF_ASC_NODE":143.1375,"ARG_OF_PERICENTER":85.5353,"MEAN_ANOMALY":274.577,"EPHEMERIS_TYPE":0,"CLASSIFICATION_TYPE":"U","NORAD_CAT_ID":61524,"ELEMENT_SET_NO":999,"REV_AT_EPOCH":7962,"BSTAR":-6.944284e-6,"MEAN_MOTION_DOT":-5.65e-6,"MEAN_MOTION_DDOT":0},{"OBJECT_NAME":"COSMOS 2251 DEB","OBJECT_ID":"1993-036DE","EPOCH":"2026-03-09T20:53:28.838688","MEAN_MOTION":15.29467846,"ECCENTRICITY":0.00306247,"INCLINATION":73.7716,"RA_OF_ASC_NODE":223.0836,"ARG_OF_PERICENTER":342.1726,"MEAN_ANOMALY":17.8397,"EPHEMERIS_TYPE":0,"CLASSIFICATION_TYPE":"U","NORAD_CAT_ID":33901,"ELEMENT_SET_NO":999,"REV_AT_EPOCH":90839,"BSTAR":0.0037194515,"MEAN_MOTION_DOT":0.00109321,"MEAN_MOTION_DDOT":0}]
